[{"OBJECT_NAME":"HUYGENS","OBJECT_ID":"2023-001CN","EPOCH":"2026-03-09T22:29:59.612064","MEAN_MOTION":15.38188083,"ECCENTRICITY":0.00114239,"INCLINATION":97.3353,"RA_OF_ASC_NODE":136.098,"ARG_OF_PERICENTER":84.7178,"MEAN_ANOMALY":275.537,"EPHEMERIS_TYPE":0,"CLASSIFICATION_TYPE":"U","NORAD_CAT_ID":55093,"ELEMENT_SET_NO":999,"REV_AT_EPOCH":17710,"BSTAR":0.00030435197,"MEAN_MOTION_DOT":0.00011392,"MEAN_MOTION_DDOT":0},{"OBJECT_NAME":"CZ-2F DEB","OBJECT_ID":"2022-093H","EPOCH":"2026-03-09T22:47:12.359904","MEAN_MOTION":15.21733628,"ECCENTRICITY":0.00740619,"INCLINATION":50.0217,"RA_OF_ASC_NODE":315.3952,"ARG_OF_PERICENTER":34.8084,"MEAN_ANOMALY":325.7683,"EPHEMERIS_TYPE":0,"CLASSIFICATION_TYPE":"U","NORAD_CAT_ID":53364,"ELEMENT_SET_NO":999,"REV_AT_EPOCH":19831,"BSTAR":0.00048014935,"MEAN_MOTION_DOT":0.00011557,"MEAN_MOTION_DDOT":0}]
